#aV2023  5 17  0  0  0.00000000     288 DD+AD WGS84 FIT  NGA
## 2262 259200.00000000   300.00000000 60081 0.0000000000000
+   32     1  2  3  4  5  6  7  8  9 10 11 12 13 14 15 16 17
+         18 19 20 21 22 23 24 25 26 27 28 29 30 31 32  0  0
+          0  0  0  0  0  0  0  0  0  0  0  0  0  0  0  0  0
+          0  0  0  0  0  0  0  0  0  0  0  0  0  0  0  0  0
+          0  0  0  0  0  0  0  0  0  0  0  0  0  0  0  0  0
++         2  2  2  2  2  2  2  2  2  2  2  2  2  2  2  2  2
++         2  2  2  2  2  2  2  2  2  2  2  2  2  2  2  0  0
++         0  0  0  0  0  0  0  0  0  0  0  0  0  0  0  0  0
++         0  0  0  0  0  0  0  0  0  0  0  0  0  0  0  0  0
++         0  0  0  0  0  0  0  0  0  0  0  0  0  0  0  0  0
%c cc cc ccc ccc cccc cccc cccc cccc ccccc ccccc ccccc ccccc
%c cc cc ccc ccc cccc cccc cccc cccc ccccc ccccc ccccc ccccc
%f  0.0000000  0.000000000  0.00000000000  0.000000000000000
%f  0.0000000  0.000000000  0.00000000000  0.000000000000000
%i    0    0    0    0      0      0      0      0         0
%i    0    0    0    0      0      0      0      0         0
/*      NGA, ST. LOUIS,MO.                                  
/*   EPHEMERIS COMPUTED FROM 2 DAYS OF DATA                 
/*   EPOCHA v8 SMOOTHER                                     
/*   G2139 IERS2010 SATIGS SATAPC                           
*  2023  5 17  3 40  0.00000000
P  1 -13361.632043   7994.927744  21117.158303    184.786327                    
V  1  -2539.361054 -27491.703284   9005.101620     -0.027974                    
P  2 -12234.853034 -20430.235400  12673.815313   -595.435626                    
V  2   -715.844490 -15156.008453 -26019.550036      0.038868                    
P  3 -22935.159935  12584.467936   4061.808480   -301.019230                    
V  3   3058.129283  -4942.237432  31681.106097      0.113451                    
P  4 -19764.124810   3504.499209 -17437.777574     43.435967                    
V  4 -18943.562258 -11534.983378  19026.267891      0.098044                    
P  5  20004.446501    106.138573 -17704.995061   -127.487821                    
V  5 -16656.760181  14564.063160 -18803.029766     -0.014560                    
P  6   5297.774107  25439.416133  -5177.298571    587.973239                    
V  6  -1449.697873   6775.892469  31542.095132     -0.004337                    
P  7  -7192.817686  21784.910795 -12495.729935    176.353985                    
V  7  -4381.265795 -16509.720340 -25824.897616     -0.093756                    
P  8 -25131.543024  -5307.828636   7447.568547   -122.788579                    
V  8  -7690.291747  -6008.747381 -29553.913277     -0.018245                    
P  9 -10501.997316  11873.497440 -21386.352147   -157.165883                    
V  9 -24473.303104 -11426.085816   5650.667750      0.084225                    
P 10   2871.209815 -17940.035439  19438.113879    -37.241111                    
V 10  20660.715987 -12960.544240 -15452.081869     -0.016050                    
P 11  12471.201715  15879.028651 -17269.692732   -199.670044                    
V 11   -904.368476  21955.910876  19488.646121     -0.139218                    
P 12  23976.071931  -9229.071148   6282.206411   -376.965510                    
V 12  -5813.520579   6567.576406  30565.105777     -0.046687                    
P 13  22957.714917  13418.245561   1906.439381    521.014658                    
V 13    892.756977   3422.406545 -31686.070844      0.053671                    
P 14  -6316.075059  18973.965921  17416.509812     59.459727                    
V 14 -19679.742989  10430.871011 -18660.003367      0.127796                    
P 15  25453.443247   2210.719144   7277.230087     40.234821                    
V 15   8379.890194   6127.785796 -29067.627474      0.034683                    
P 16 -18074.705493  -5033.627413 -19276.615191   -500.344989                    
V 16  20063.599626 -12594.817425 -15331.165827      0.033326                    
P 17   4752.759216  17764.649562  19555.010655    715.071501                    
V 17 -21486.810125 -10558.654452  15250.899637      0.014094                    
P 18   5402.507669 -23840.472887 -10195.653143   -269.431270                    
V 18   3076.793274  12805.100239 -28463.425361     -0.157728                    
P 19  13481.923551  18720.739288  13196.294197    317.918413                    
V 19 -15449.994085  -7298.886309  25406.147397      0.051114                    
P 20  14021.728258   7547.932257 -21199.667250    433.170497                    
V 20 -18870.628794  19418.977243  -5750.265631     -0.020675                    
P 21 -15831.026676  -2085.816640  21873.186812    153.777842                    
V 21  -4411.054446 -26003.012735  -4970.210463     -0.002173                    
P 22 -15880.381498 -18352.485594  11427.734222    482.588548                    
V 22  12997.467918   5026.692428  27060.105777      0.063710                    
P 23  14216.157983 -19590.844710  10760.240850     24.839259                    
V 23  12323.266108  -6356.753467 -28012.590937      0.031355                    
P 24  15226.893677  -3542.308947  21103.809815   -191.474044                    
V 24   5057.353568  27294.090391   1333.446242     -0.138214                    
P 25  19493.434881 -17432.135920  -4049.853621    443.353688                    
V 25   5762.761752   -189.481521  31207.745268      0.026958                    
P 26  -8077.877098 -13736.553452 -21343.706446    240.693706                    
V 26  21341.707571 -16479.392142   2883.263260     -0.004995                    
P 27 -23048.362533 -13292.808047  -3341.903847     35.898200                    
V 27   4454.141406   -361.999246 -31261.389395     -0.080260                    
P 28  -5324.749431 -25828.047119  -3213.195869     78.196658                    
V 28   2263.026624  -4348.041846  31421.877252      0.032495                    
P 29  13983.356005  -8411.933134 -21030.996084   -599.691632                    
V 29  22734.968444  13646.706657   9596.985153     -0.013582                    
P 30     15.127742  26271.329816  -2631.475606   -516.750605                    
V 30  -4080.277965  -3219.718309 -31119.487410      0.021799                    
P 31 -10638.863611 -20278.062217 -13255.339036   -216.260865                    
V 31   1623.638199 -16857.761356  25244.953035     -0.007500                    
P 32  -8621.410452 -17835.328656  17967.790766   -478.336799                    
V 32  20952.718525   8014.460141  17997.762653     -0.091928                    
EOF
